ALOS-4 (DAICHI-4)       
1 60182U 24123A   24255.56433473  .00001971  00000+0  27071-3 0  9999
2 60182  97.9212 350.9823 0001494  96.9628 263.1753 14.79472633 10719
